NORAD_CAT_ID,OBJECT_NAME,OBJECT_TYPE,EPOCH,MEAN_MOTION,ECCENTRICITY,INCLINATION,RA_OF_ASC_NODE,ARG_OF_PERICENTER,MEAN_ANOMALY,BSTAR,MEAN_MOTION_DOT,MEAN_MOTION_DDOT,TLE_LINE0,TLE_LINE1,TLE_LINE2,SEMIMAJOR_AXIS,PERIOD,APOGEE,PERIGEE,DECAYED
52100.0,STARLINK-3702,PAYLOAD,2022-05-18 14:00:01,15.17690829,0.0001375999999999,53.2176,214.19,61.1129,3.4371,-0.038152,-0.00724923,0.0,0 STARLINK-3702,1 52100U 22029N   22138.58334491 -.00724923  00000-0 -38152-1 0  9995,2 52100  53.2176 214.1900 0001376  61.1129   3.4371 15.17690829  1308,6890.959,94.881,513.7719999999998,511.875,0.0
52100.0,STARLINK-3702,PAYLOAD,2022-05-18 22:00:00,15.17180406,0.0001271,53.2176,212.6736,73.937,12.5319,-0.038662,-0.00723934,0.0,0 STARLINK-3702,1 52100U 22029N   22138.91667824 -.00723934  00000-0 -38662-1 0  9998,2 52100  53.2176 212.6736 0001271  73.9370  12.5319 15.17180406  1309,6892.504,94.913,515.245,513.493,0.0
52100.0,STARLINK-3702,PAYLOAD,2022-05-19 06:00:00,15.16669485,0.0001379,53.2177,211.1595,66.9493,40.8251,-0.039115,-0.0072188999999999,0.0,0 STARLINK-3702,1 52100U 22029N   22139.25001157 -.00721890  00000-0 -39115-1 0  9990,2 52100  53.2177 211.1595 0001379  66.9493  40.8251 15.16669485 10749,6894.052,94.945,516.867,514.966,0.0
52100.0,STARLINK-3702,PAYLOAD,2022-05-19 14:00:01,15.16159444,0.0001419999999999,53.2176,209.6486,67.1817,61.3475,-0.039728,-0.00722513,0.0,0 STARLINK-3702,1 52100U 22029N   22139.58335648 -.00722513  00000-0 -39728-1 0  9994,2 52100  53.2176 209.6486 0001420  67.1817  61.3475 15.16159444  1306,6895.598000000001,94.977,518.442,516.484,0.0
52100.0,STARLINK-3702,PAYLOAD,2022-05-19 22:00:00,15.15650128,0.0001363,53.2175,208.1358,74.7206,73.8255,-0.04034,-0.00722992,0.0,0 STARLINK-3702,1 52100U 22029N   22139.91667824 -.00722992  00000-0 -40340-1 0  9998,2 52100  53.2175 208.1358 0001363  74.7206  73.8255 15.15650128  1307,6897.143,95.009,519.948,518.067,0.0
52100.0,STARLINK-3702,PAYLOAD,2022-05-20 06:00:00,15.15139594,0.0001463,53.2178,206.6254,67.6433,100.37,-0.040871,-0.00722002,0.0,0 STARLINK-3702,1 52100U 22029N   22140.25001157 -.00722002  00000-0 -40871-1 0  9999,2 52100  53.2178 206.6254 0001463  67.6433 100.3700 15.15139594 10896,6898.691999999999,95.041,521.566,519.548,0.0
52100.0,STARLINK-3702,PAYLOAD,2022-05-20 14:00:01,15.14627967,0.0001425,53.2176,205.118,78.2592,108.6078,-0.041322,-0.00719594,0.0,0 STARLINK-3702,1 52100U 22029N   22140.58334491 -.00719594  00000-0 -41322-1 0  9999,2 52100  53.2176 205.1180 0001425  78.2592 108.6078 15.14627967  1308,6900.245,95.073,523.094,521.127,0.0
52100.0,STARLINK-3702,PAYLOAD,2022-05-20 22:00:00,15.14120189,0.0001395999999999,53.2175,203.6084,81.1603,123.948,-0.042115,-0.00722689,0.0,0 STARLINK-3702,1 52100U 22029N   22140.91667824 -.00722689  00000-0 -42115-1 0  9995,2 52100  53.2175 203.6084 0001396  81.1603 123.9480 15.14120189  1307,6901.788000000001,95.105,524.616,522.689,0.0
52100.0,STARLINK-3702,PAYLOAD,2022-05-21 06:00:00,15.13609605,0.0001467,53.2177,202.102,71.8364,150.9005,-0.042669,-0.00721773,0.0,0 STARLINK-3702,1 52100U 22029N   22141.25001157 -.00721773  00000-0 -42669-1 0  9991,2 52100  53.2177 202.1020 0001467  71.8364 150.9005 15.13609605 11041,6903.34,95.137,526.2180000000002,524.192,0.0
52100.0,STARLINK-3702,PAYLOAD,2022-05-21 14:00:01,15.13097255,0.0001406999999999,53.2176,200.5979,83.9871,155.8285,-0.043041,-0.00717894,0.0,0 STARLINK-3702,1 52100U 22029N   22141.58335648 -.00717894  00000-0 -43041-1 0  9996,2 52100  53.2176 200.5979 0001407  83.9871 155.8285 15.13097255  1300,6904.898,95.169,527.735,525.7919999999998,0.0
52100.0,STARLINK-3702,PAYLOAD,2022-05-21 22:00:00,15.12590057,0.0001358,53.2175,199.0919,85.2663,170.889,-0.043949,-0.00722329,0.0,0 STARLINK-3702,1 52100U 22029N   22141.91667824 -.00722329  00000-0 -43949-1 0  9993,2 52100  53.2175 199.0919 0001358  85.2663 170.8890 15.12590057  1300,6906.441999999999,95.201,529.245,527.369,0.0
52100.0,STARLINK-3702,PAYLOAD,2022-05-22 14:00:01,15.115673199999998,0.0001345,53.2175,196.0886,88.1223,199.0003,-0.044904,-0.00717531,0.0,0 STARLINK-3702,1 52100U 22029N   22142.58334491 -.00717531  00000-0 -44904-1 0  9999,2 52100  53.2175 196.0886 0001345  88.1223 199.0003 15.11567320 11249,6909.557,95.265,532.351,530.492,0.0
52100.0,STARLINK-3702,PAYLOAD,2022-05-22 22:00:01,15.11059474,0.00013,53.2175,194.586,85.5161,216.2344,-0.045805,-0.00721351,0.0,0 STARLINK-3702,1 52100U 22029N   22142.91668981 -.00721351  00000-0 -45805-1 0  9996,2 52100  53.2175 194.5860 0001300  85.5161 216.2344 15.11059474  1309,6911.105,95.297,533.868,532.071,0.0
52100.0,STARLINK-3702,PAYLOAD,2022-05-23 14:00:01,15.10037655,0.0001274,53.2174,191.5898,86.4309,242.5467,-0.046874,-0.00717785,0.0,0 STARLINK-3702,1 52100U 22029N   22143.58334491 -.00717785  00000-0 -46874-1 0  9999,2 52100  53.2174 191.5898 0001274  86.4309 242.5467 15.10037655  1304,6914.222,95.362,536.9680000000002,535.206,0.0
52100.0,STARLINK-3702,PAYLOAD,2022-05-23 16:00:00,15.09897651,0.000133,53.2167,191.21400000000003,66.1363,356.0867,-0.045775,-0.00699541,0.0,0 STARLINK-3702,1 52100U 22029N   22143.66667824 -.00699541  00000-0 -45775-1 0  9995,2 52100  53.2167 191.2140 0001330  66.1363 356.0867 15.09897651 11417,6914.649,95.371,537.434,535.595,0.0
52100.0,STARLINK-3702,PAYLOAD,2022-05-23 22:00:01,15.09524801,0.000126,53.2175,190.0905,75.3343,266.4344,-0.047136,-0.00712042,0.0,0 STARLINK-3702,1 52100U 22029N   22143.91668981 -.00712042  00000-0 -47136-1 0  9993,2 52100  53.2175 190.0905 0001260  75.3343 266.4344 15.09524801  1309,6915.788000000001,95.394,538.524,536.7819999999998,0.0
52100.0,STARLINK-3702,PAYLOAD,2022-05-24 06:00:02,15.08885573,0.0001453999999999,53.2175,188.5941,66.0286,287.8686,-0.0048924,-0.0007741,0.0,0 STARLINK-3702,1 52100U 22029N   22144.25002315 -.00077410  00000-0 -48924-2 0  9994,2 52100  53.2175 188.5941 0001454  66.0286 287.8686 15.08885573 11503,6917.741,95.435,540.612,538.6,0.0
52100.0,STARLINK-3702,PAYLOAD,2022-05-24 14:00:01,15.08835943,0.0001330999999999,53.2174,187.099,74.7183,290.731,0.00017236,2.456e-05,0.0,0 STARLINK-3702,1 52100U 22029N   22144.58334491  .00002456  00000-0  17236-3 0  9992,2 52100  53.2174 187.0990 0001331  74.7183 290.7310 15.08835943  1306,6917.893,95.438,540.679,538.837,0.0
52100.0,STARLINK-3702,PAYLOAD,2022-05-24 22:00:00,15.08824515,0.0001243,53.2145,185.593,70.2658,306.7805,0.0022466,0.00035633,0.0,0 STARLINK-3702,1 52100U 22029N   22144.91667824  .00035633  00000-0  22466-2 0  9991,2 52100  53.2145 185.5930 0001243  70.2658 306.7805 15.08824515 11605,6917.928000000001,95.439,540.653,538.933,0.0
52100.0,STARLINK-3702,PAYLOAD,2022-05-25 12:00:00,15.08798381,0.0001318,53.2147,182.9761,59.0442,248.3059,0.0010109,0.00015819,0.0,0 STARLINK-3702,1 52100U 22029N   22145.50001157  .00015819  00000-0  10109-2 0  9993,2 52100  53.2147 182.9761 0001318  59.0442 248.3059 15.08798381 11680,6918.0080000000025,95.44,540.784,538.961,0.0
52100.0,STARLINK-3702,PAYLOAD,2022-05-25 14:00:01,15.08788768,0.0001252999999999,53.2145,182.602,56.257,343.9846,0.002449,0.00038848,0.0,0 STARLINK-3702,1 52100U 22029N   22145.58334491  .00038848  00000-0  24490-2 0  9996,2 52100  53.2145 182.6020 0001253  56.2570 343.9846 15.08788768  1304,6918.0369999999975,95.441,540.769,539.035,0.0
52100.0,STARLINK-3702,PAYLOAD,2022-05-25 22:00:00,15.0879488,0.0001171,53.2148,181.1037,66.8314,344.9735,0.0050586,0.00081046,0.0,0 STARLINK-3702,1 52100U 22029N   22145.91667824  .00081046  00000-0  50586-2 0  9995,2 52100  53.2148 181.1037 0001171  66.8314 344.9735 15.08794880  1301,6918.018,95.44,540.693,539.073,0.0
52100.0,STARLINK-3702,PAYLOAD,2022-05-26 06:00:00,15.08864085,0.0001314,53.2149,179.6082,65.7109,357.6597,-0.0016843,-0.00027011,0.0,0 STARLINK-3702,1 52100U 22029N   22146.25001157 -.00027011  00000-0 -16843-2 0  9996,2 52100  53.2149 179.6082 0001314  65.7109 357.6597 15.08864085 11801,6917.807,95.436,540.581,538.763,0.0
52100.0,STARLINK-3702,PAYLOAD,2022-05-26 14:00:01,15.08837801,0.0001365,53.2146,178.1127,57.132,17.8522,0.0022497,0.00035695,0.0,0 STARLINK-3702,1 52100U 22029N   22146.58334491  .00035695  00000-0  22497-2 0  9999,2 52100  53.2146 178.1127 0001365  57.1320  17.8522 15.08837801  1301,6917.887,95.438,540.696,538.808,0.0
52100.0,STARLINK-3702,PAYLOAD,2022-05-26 22:00:00,15.08835535,0.0001221,53.2147,176.6144,67.1384,19.4618,0.0025683,0.00040818,0.0,0 STARLINK-3702,1 52100U 22029N   22146.91667824  .00040818  00000-0  25683-2 0  9998,2 52100  53.2147 176.6144 0001221  67.1384  19.4618 15.08835535 11909,6917.894,95.438,540.604,538.914,0.0
52100.0,STARLINK-3702,PAYLOAD,2022-05-27 14:00:01,15.08864598,0.0001426,53.2148,173.6232,57.7749,52.0487,-0.0018283,-0.00029287,0.0,0 STARLINK-3702,1 52100U 22029N   22147.58334491 -.00029287  00000-0 -18283-2 0  9990,2 52100  53.2148 173.6232 0001426  57.7749  52.0487 15.08864598  1303,6917.805,95.436,540.6569999999998,538.684,0.0
52100.0,STARLINK-3702,PAYLOAD,2022-05-27 16:00:00,15.08877725,0.0001406999999999,53.2149,173.2484,60.8924,141.8338,-0.0041883,-0.00066399,0.0,0 STARLINK-3702,1 52100U 22029N   22147.66667824 -.00066399  00000-0 -41883-2 0  9995,2 52100  53.2149 173.2484 0001407  60.8924 141.8338 15.08877725 12016,6917.765,95.435,540.6030000000002,538.6569999999998,0.0
52100.0,STARLINK-3702,PAYLOAD,2022-05-27 22:00:01,15.08815045,0.0001322,53.2155,172.1249,69.075,52.4362,0.0025625,0.00040702,0.0,0 STARLINK-3702,1 52100U 22029N   22147.91668981  .00040702  00000-0  25625-2 0  9992,2 52100  53.2155 172.1249 0001322  69.0750  52.4362 15.08815045  1305,6917.956999999999,95.439,540.736,538.9069999999998,0.0
52100.0,STARLINK-3702,PAYLOAD,2022-05-28 06:00:02,15.08854632,0.0001431,53.2169,170.6317,66.2337,66.8631,-0.0018096,-0.00028984,0.0,0 STARLINK-3702,1 52100U 22029N   22148.25002315 -.00028984  00000-0 -18096-2 0  9997,2 52100  53.2169 170.6317 0001431  66.2337  66.8631 15.08854632 12103,6917.8359999999975,95.437,540.691,538.711,0.0
